{"type": "FeatureCollection", "features": [ {"type": "Feature", "properties": {"norad_id": 40697, "name": "SENTINEL-2A", "group": "resource", "lat": 56.860969480717905, "lon": 40.73070293573431, "alt_km": 782.8903322246924, "timestamp": "2025-12-07T11:27:49.644579+00:00", "meta": {"OBJECT_NAME": "SENTINEL-2A", "OBJECT_ID": "2015-028A", "EPOCH": "2025-12-06T21:46:04.112256", "MEAN_MOTION": 14.30823828, "ECCENTRICITY": 0.00010298, "INCLINATION": 98.57, "RA_OF_ASC_NODE": 53.5229, "ARG_OF_PERICENTER": 94.4541, "MEAN_ANOMALY": 265.676, "EPHEMERIS_TYPE": 0, "CLASSIFICATION_TYPE": "U", "NORAD_CAT_ID": 40697, "ELEMENT_SET_NO": 999, "REV_AT_EPOCH": 54623, "BSTAR": 0.00013403582, "MEAN_MOTION_DOT": 3.08e-06, "MEAN_MOTION_DDOT": 0}, "tle": {"line1": "1 40697U 15028A   25340.90699204  .00000308  00000+0  13404-3 0  9990", "line2": "2 40697  98.5700  53.5229 0001029  94.4541 265.6760 14.30823828546233"}}, "geometry": {"type": "Point", "coordinates": [40.73070293573431, 56.860969480717905]}}, {"type": "Feature", "properties": {"norad_id": 40701, "name": "GAOFEN-8", "group": "resource", "lat": -49.380595225342205, "lon": -29.702866813387782, "alt_km": 455.86659577334194, "timestamp": "2025-12-07T11:27:49.644589+00:00", "meta": {"OBJECT_NAME": "GAOFEN-8", "OBJECT_ID": "2015-030A", "EPOCH": "2025-12-06T21:58:42.525408", "MEAN_MOTION": 15.38258498, "ECCENTRICITY": 0.00113732, "INCLINATION": 97.6909, "RA_OF_ASC_NODE": 158.7737, "ARG_OF_PERICENTER": 158.5654, "MEAN_ANOMALY": 201.6069, "EPHEMERIS_TYPE": 0, "CLASSIFICATION_TYPE": "U", "NORAD_CAT_ID": 40701, "ELEMENT_SET_NO": 999, "REV_AT_EPOCH": 58181, "BSTAR": 0.00068851696, "MEAN_MOTION_DOT": 0.00025978, "MEAN_MOTION_DDOT": 0}, "tle": {"line1": "1 40701U 15030A   25340.91576997  .00025978  00000+0  68852-3 0  9990", "line2": "2 40701  97.6909 158.7737 0011373 158.5654 201.6069 15.38258498581811"}}, "geometry": {"type": "Point", "coordinates": [-29.702866813387782, -49.380595225342205]}}, {"type": "Feature", "properties": {"norad_id": 40718, "name": "CARBONITE 1 (CBNT-1)", "group": "resource", "lat": 44.955246784378474, "lon": -9.544269029878958, "alt_km": 612.7500726301723, "timestamp": "2025-12-07T11:27:49.644599+00:00", "meta": {"OBJECT_NAME": "CARBONITE 1 (CBNT-1)", "OBJECT_ID": "2015-032D", "EPOCH": "2025-12-06T21:54:04.496256", "MEAN_MOTION": 14.8270168, "ECCENTRICITY": 0.00140338, "INCLINATION": 97.6402, "RA_OF_ASC_NODE": 162.2136, "ARG_OF_PERICENTER": 200.9118, "MEAN_ANOMALY": 159.1524, "EPHEMERIS_TYPE": 0, "CLASSIFICATION_TYPE": "U", "NORAD_CAT_ID": 40718, "ELEMENT_SET_NO": 999, "REV_AT_EPOCH": 56084, "BSTAR": 0.00051895986, "MEAN_MOTION_DOT": 4.145e-05, "MEAN_MOTION_DDOT": 0}, "tle": {"line1": "1 40718U 15032D   25340.91255204  .00004145  00000+0  51896-3 0  9998", "line2": "2 40718  97.6402 162.2136 0014033 200.9118 159.1524 14.82701680560840"}}, "geometry": {"type": "Point", "coordinates": [-9.544269029878958, 44.955246784378474]}}, {"type": "Feature", "properties": {"norad_id": 40878, "name": "YAOGAN-27", "group": "resource", "lat": 71.97285932566605, "lon": -175.45554090155488, "alt_km": 1198.4260727027167, "timestamp": "2025-12-07T11:27:49.644610+00:00", "meta": {"OBJECT_NAME": "YAOGAN-27", "OBJECT_ID": "2015-040A", "EPOCH": "2025-12-06T22:09:37.604160", "MEAN_MOTION": 13.16060014, "ECCENTRICITY": 0.00076855, "INCLINATION": 100.1007, "RA_OF_ASC_NODE": 330.8066, "ARG_OF_PERICENTER": 301.0322, "MEAN_ANOMALY": 59.0037, "EPHEMERIS_TYPE": 0, "CLASSIFICATION_TYPE": "U", "NORAD_CAT_ID": 40878, "ELEMENT_SET_NO": 999, "REV_AT_EPOCH": 49237, "BSTAR": 0.00013981909, "MEAN_MOTION_DOT": 1.1e-07, "MEAN_MOTION_DDOT": 0}, "tle": {"line1": "1 40878U 15040A   25340.92335190  .00000011  00000+0  13982-3 0  9990", "line2": "2 40878 100.1007 330.8066 0007685 301.0322  59.0037 13.16060014492372"}}, "geometry": {"type": "Point", "coordinates": [-175.45554090155488, 71.97285932566605]}}, {"type": "Feature", "properties": {"norad_id": 40894, "name": "GAOFEN-9 01", "group": "resource", "lat": 60.403996500842666, "lon": 6.963906201561083, "alt_km": 596.0925747352985, "timestamp": "2025-12-07T11:27:49.644620+00:00", "meta": {"OBJECT_NAME": "GAOFEN-9 01", "OBJECT_ID": "2015-047A", "EPOCH": "2025-12-06T22:13:46.804224", "MEAN_MOTION": 14.82400274, "ECCENTRICITY": 0.00287713, "INCLINATION": 97.6545, "RA_OF_ASC_NODE": 20.1328, "ARG_OF_PERICENTER": 52.7039, "MEAN_ANOMALY": 307.6792, "EPHEMERIS_TYPE": 0, "CLASSIFICATION_TYPE": "U", "NORAD_CAT_ID": 40894, "ELEMENT_SET_NO": 999, "REV_AT_EPOCH": 55170, "BSTAR": 0.00029367854, "MEAN_MOTION_DOT": 2.318e-05, "MEAN_MOTION_DDOT": 0}, "tle": {"line1": "1 40894U 15047A   25340.92623616  .00002318  00000+0  29368-3 0  9995", "line2": "2 40894  97.6545  20.1328 0028771  52.7039 307.6792 14.82400274551704"}}, "geometry": {"type": "Point", "coordinates": [6.963906201561083, 60.403996500842666]}}, {"type": "Feature", "properties": {"norad_id": 41026, "name": "YAOGAN-28", "group": "resource", "lat": 38.716330720778814, "lon": -54.69806240421576, "alt_km": 481.981152602355, "timestamp": "2025-12-07T11:27:49.644630+00:00", "meta": {"OBJECT_NAME": "YAOGAN-28", "OBJECT_ID": "2015-064A", "EPOCH": "2025-12-06T22:14:36.873024", "MEAN_MOTION": 15.24206491, "ECCENTRICITY": 0.00121036, "INCLINATION": 97.2809, "RA_OF_ASC_NODE": 118.8843, "ARG_OF_PERICENTER": 145.1524, "MEAN_ANOMALY": 215.0509, "EPHEMERIS_TYPE": 0, "CLASSIFICATION_TYPE": "U", "NORAD_CAT_ID": 41026, "ELEMENT_SET_NO": 999, "REV_AT_EPOCH": 56136, "BSTAR": 0.00057432581, "MEAN_MOTION_DOT": 0.00013969, "MEAN_MOTION_DDOT": 0}, "tle": {"line1": "1 41026U 15064A   25340.92681566  .00013969  00000+0  57433-3 0  9998", "line2": "2 41026  97.2809 118.8843 0012103 145.1524 215.0509 15.24206491561369"}}, "geometry": {"type": "Point", "coordinates": [-54.69806240421576, 38.716330720778814]}}, {"type": "Feature", "properties": {"norad_id": 41038, "name": "YAOGAN-29", "group": "resource", "lat": -58.942945032706625, "lon": 18.17616596730751, "alt_km": 627.1998559540307, "timestamp": "2025-12-07T11:27:49.644641+00:00", "meta": {"OBJECT_NAME": "YAOGAN-29", "OBJECT_ID": "2015-069A", "EPOCH": "2025-12-06T22:46:39.885600", "MEAN_MOTION": 14.82872804, "ECCENTRICITY": 4.771e-05, "INCLINATION": 98.0223, "RA_OF_ASC_NODE": 4.102, "ARG_OF_PERICENTER": 356.0053, "MEAN_ANOMALY": 4.1156, "EPHEMERIS_TYPE": 0, "CLASSIFICATION_TYPE": "U", "NORAD_CAT_ID": 41038, "ELEMENT_SET_NO": 999, "REV_AT_EPOCH": 54213, "BSTAR": 0.00011616333, "MEAN_MOTION_DOT": 8.87e-06, "MEAN_MOTION_DDOT": 0}, "tle": {"line1": "1 41038U 15069A   25340.94907275  .00000887  00000+0  11616-3 0  9994", "line2": "2 41038  98.0223   4.1020 0000477 356.0053   4.1156 14.82872804542135"}}, "geometry": {"type": "Point", "coordinates": [18.17616596730751, -58.942945032706625]}}, {"type": "Feature", "properties": {"norad_id": 41167, "name": "KENT RIDGE 1", "group": "resource", "lat": 14.639434660316342, "lon": -32.13305633957443, "alt_km": 490.7761012315668, "timestamp": "2025-12-07T11:27:49.644652+00:00", "meta": {"OBJECT_NAME": "KENT RIDGE 1", "OBJECT_ID": "2015-077B", "EPOCH": "2025-12-06T22:32:12.951456", "MEAN_MOTION": 15.21567192, "ECCENTRICITY": 0.00085732, "INCLINATION": 14.9795, "RA_OF_ASC_NODE": 254.1844, "ARG_OF_PERICENTER": 48.4513, "MEAN_ANOMALY": 311.6543, "EPHEMERIS_TYPE": 0, "CLASSIFICATION_TYPE": "U", "NORAD_CAT_ID": 41167, "ELEMENT_SET_NO": 999, "REV_AT_EPOCH": 55175, "BSTAR": 0.0002724168, "MEAN_MOTION_DOT": 7.094e-05, "MEAN_MOTION_DDOT": 0}, "tle": {"line1": "1 41167U 15077B   25340.93903879  .00007094  00000+0  27242-3 0  9990", "line2": "2 41167  14.9795 254.1844 0008573  48.4513 311.6543 15.21567192551757"}}, "geometry": {"type": "Point", "coordinates": [-32.13305633957443, 14.639434660316342]}}, {"type": "Feature", "properties": {"norad_id": 41194, "name": "GAOFEN-4", "group": "resource", "lat": -0.14751270713474393, "lon": -5.8351646334326, "alt_km": 35800.86834053246, "timestamp": "2025-12-07T11:27:49.644668+00:00", "meta": {"OBJECT_NAME": "GAOFEN-4", "OBJECT_ID": "2015-083A", "EPOCH": "2025-12-06T22:15:38.627424", "MEAN_MOTION": 1.00271991, "ECCENTRICITY": 0.00036018, "INCLINATION": 0.155, "RA_OF_ASC_NODE": 80.9624, "ARG_OF_PERICENTER": 105.8495, "MEAN_ANOMALY": 328.7631, "EPHEMERIS_TYPE": 0, "CLASSIFICATION_TYPE": "U", "NORAD_CAT_ID": 41194, "ELEMENT_SET_NO": 999, "REV_AT_EPOCH": 3660, "BSTAR": 0, "MEAN_MOTION_DOT": -3.29e-06, "MEAN_MOTION_DDOT": 0}, "tle": {"line1": "1 41194U 15083A   25340.92753041 -.00000329  00000+0  00000+0 0  9994", "line2": "2 41194   0.1550  80.9624 0003601 105.8495 328.7631  1.00271991 36608"}}, "geometry": {"type": "Point", "coordinates": [-5.8351646334326, -0.14751270713474393]}}, {"type": "Feature", "properties": {"norad_id": 41240, "name": "JASON-3", "group": "resource", "lat": 37.45681249472772, "lon": -171.1948241378763, "alt_km": 1310.9066667775633, "timestamp": "2025-12-07T11:27:49.644681+00:00", "meta": {"OBJECT_NAME": "JASON-3", "OBJECT_ID": "2016-002A", "EPOCH": "2025-12-06T22:11:57.219648", "MEAN_MOTION": 12.87626206, "ECCENTRICITY": 0.00071287, "INCLINATION": 66.0391, "RA_OF_ASC_NODE": 170.0494, "ARG_OF_PERICENTER": 270.4462, "MEAN_ANOMALY": 89.574, "EPHEMERIS_TYPE": 0, "CLASSIFICATION_TYPE": "U", "NORAD_CAT_ID": 41240, "ELEMENT_SET_NO": 999, "REV_AT_EPOCH": 46249, "BSTAR": 2.7947497e-05, "MEAN_MOTION_DOT": -5.5e-07, "MEAN_MOTION_DDOT": 0}, "tle": {"line1": "1 41240U 16002A   25340.92496782 -.00000055  00000+0  27947-4 0  9994", "line2": "2 41240  66.0391 170.0494 0007128 270.4462  89.5740 12.87626206462494"}}, "geometry": {"type": "Point", "coordinates": [-171.1948241378763, 37.45681249472772]}}]}